start=new Date('2022-11-25T00:00:00.000Z').valueOf();
sats=[{"EPOCH":"2022-11-24T22:00:00.999936","CENTER_NAME":"EARTH","RCS_SIZE":"LARGE","BSTAR":"-0.00367200000000","RA_OF_ASC_NODE":"208.5462","DECAY_DATE":null,"GP_ID":"218725844","NORAD_CAT_ID":"53673","REF_FRAME":"TEME","MEAN_MOTION_DDOT":"0.0000000000000","ECCENTRICITY":"0.00041720","OBJECT_NAME":"STARLINK-4456","COUNTRY_CODE":"US","EPHEMERIS_TYPE":"0","CLASSIFICATION_TYPE":"U","REV_AT_EPOCH":"130","SEMIMAJOR_AXIS":"6943.566","MEAN_MOTION_DOT":"-0.00045973","FILE":"3669335","MEAN_MOTION":"15.00475435","PERIOD":"95.970","OBJECT_ID":"2022-105AB","LAUNCH_DATE":"2022-08-31","OBJECT_TYPE":"PAYLOAD","PERIAPSIS":"562.534","SITE":"AFWTR","APOAPSIS":"568.328","INCLINATION":"97.6543","TLE_LINE2":"2 53673  97.6543 208.5462 0004172  89.9386 116.7881 15.00475435  1304","TIME_SYSTEM":"UTC","MEAN_ELEMENT_THEORY":"SGP4","ARG_OF_PERICENTER":"89.9386","MEAN_ANOMALY":"116.7881","ELEMENT_SET_NO":"999","TLE_LINE1":"1 53673U 22105AB  22328.91667824 -.00045973  00000-0 -36720-2 0  9994"},{"NORAD_CAT_ID":"53674","REF_FRAME":"TEME","MEAN_MOTION_DDOT":"0.0000000000000","ECCENTRICITY":"0.00026950","OBJECT_NAME":"STARLINK-4620","EPHEMERIS_TYPE":"0","COUNTRY_CODE":"US","EPOCH":"2022-11-24T22:00:00.999936","CENTER_NAME":"EARTH","RCS_SIZE":"LARGE","BSTAR":"-0.00013444000000","RA_OF_ASC_NODE":"207.9053","DECAY_DATE":null,"GP_ID":"218726020","PERIAPSIS":"561.178","APOAPSIS":"564.920","SITE":"AFWTR","INCLINATION":"97.6532","TLE_LINE2":"2 53674  97.6532 207.9053 0002695  80.9825 215.7998 15.01247982  1303","TIME_SYSTEM":"UTC","MEAN_ELEMENT_THEORY":"SGP4","ARG_OF_PERICENTER":"80.9825","MEAN_ANOMALY":"215.7998","ELEMENT_SET_NO":"999","TLE_LINE1":"1 53674U 22105AC  22328.91667824 -.00001785  00000-0 -13444-3 0  9997","CLASSIFICATION_TYPE":"U","REV_AT_EPOCH":"130","SEMIMAJOR_AXIS":"6941.184","MEAN_MOTION_DOT":"-0.00001785","FILE":"3669335","PERIOD":"95.920","MEAN_MOTION":"15.01247982","OBJECT_ID":"2022-105AC","LAUNCH_DATE":"2022-08-31","OBJECT_TYPE":"PAYLOAD"},{"ELEMENT_SET_NO":"999","TLE_LINE1":"1 53675U 22105AD  22328.91667824 -.00001960  00000-0 -14803-3 0  9993","TIME_SYSTEM":"UTC","MEAN_ELEMENT_THEORY":"SGP4","ARG_OF_PERICENTER":"68.4652","MEAN_ANOMALY":"208.3173","APOAPSIS":"564.980","SITE":"AFWTR","INCLINATION":"97.6538","TLE_LINE2":"2 53675  97.6538 207.9032 0002813  68.4652 208.3173 15.01255027  1300","PERIAPSIS":"561.075","MEAN_MOTION":"15.01255027","PERIOD":"95.920","LAUNCH_DATE":"2022-08-31","OBJECT_ID":"2022-105AD","OBJECT_TYPE":"PAYLOAD","FILE":"3669335","MEAN_MOTION_DOT":"-0.00001960","REV_AT_EPOCH":"130","CLASSIFICATION_TYPE":"U","SEMIMAJOR_AXIS":"6941.162","OBJECT_NAME":"STARLINK-4617","EPHEMERIS_TYPE":"0","COUNTRY_CODE":"US","REF_FRAME":"TEME","MEAN_MOTION_DDOT":"0.0000000000000","ECCENTRICITY":"0.00028130","NORAD_CAT_ID":"53675","DECAY_DATE":null,"GP_ID":"218726899","CENTER_NAME":"EARTH","BSTAR":"-0.00014803000000","RCS_SIZE":"LARGE","RA_OF_ASC_NODE":"207.9032","EPOCH":"2022-11-24T22:00:00.999936"},{"TLE_LINE2":"2 53676  97.6532 207.9057 0002338  87.7508 228.9809 15.01265378  1302","INCLINATION":"97.6532","APOAPSIS":"564.618","SITE":"AFWTR","PERIAPSIS":"561.372","TLE_LINE1":"1 53676U 22105AE  22328.91667824 -.00000850  00000-0 -61617-4 0  9997","ELEMENT_SET_NO":"999","MEAN_ANOMALY":"228.9809","ARG_OF_PERICENTER":"87.7508","MEAN_ELEMENT_THEORY":"SGP4","TIME_SYSTEM":"UTC","MEAN_MOTION_DOT":"-0.00000850","SEMIMAJOR_AXIS":"6941.130","CLASSIFICATION_TYPE":"U","REV_AT_EPOCH":"130","OBJECT_TYPE":"PAYLOAD","LAUNCH_DATE":"2022-08-31","OBJECT_ID":"2022-105AE","MEAN_MOTION":"15.01265378","PERIOD":"95.919","FILE":"3669335","NORAD_CAT_ID":"53676","COUNTRY_CODE":"US","EPHEMERIS_TYPE":"0","OBJECT_NAME":"STARLINK-4621","ECCENTRICITY":"0.00023380","MEAN_MOTION_DDOT":"0.0000000000000","REF_FRAME":"TEME","RA_OF_ASC_NODE":"207.9057","BSTAR":"-0.00006161700000","RCS_SIZE":"LARGE","CENTER_NAME":"EARTH","EPOCH":"2022-11-24T22:00:00.999936","GP_ID":"218726723","DECAY_DATE":null},{"EPOCH":"2022-11-24T22:00:00.999936","CENTER_NAME":"EARTH","RCS_SIZE":"LARGE","BSTAR":"-0.00127580000000","RA_OF_ASC_NODE":"207.9051","DECAY_DATE":null,"GP_ID":"218726202","NORAD_CAT_ID":"53677","MEAN_MOTION_DDOT":"0.0000000000000","REF_FRAME":"TEME","ECCENTRICITY":"0.00027490","OBJECT_NAME":"STARLINK-4579","COUNTRY_CODE":"US","EPHEMERIS_TYPE":"0","CLASSIFICATION_TYPE":"U","REV_AT_EPOCH":"130","SEMIMAJOR_AXIS":"6941.169","MEAN_MOTION_DOT":"-0.00016406","FILE":"3669335","MEAN_MOTION":"15.01252663","PERIOD":"95.920","LAUNCH_DATE":"2022-08-31","OBJECT_ID":"2022-105AF","OBJECT_TYPE":"PAYLOAD","PERIAPSIS":"561.126","SITE":"AFWTR","APOAPSIS":"564.943","INCLINATION":"97.6532","TLE_LINE2":"2 53677  97.6532 207.9051 0002749  74.6826 212.0987 15.01252663  1305","TIME_SYSTEM":"UTC","MEAN_ELEMENT_THEORY":"SGP4","ARG_OF_PERICENTER":"74.6826","MEAN_ANOMALY":"212.0987","ELEMENT_SET_NO":"999","TLE_LINE1":"1 53677U 22105AF  22328.91667824 -.00016406  00000-0 -12758-2 0  9992"},{"CENTER_NAME":"EARTH","BSTAR":"-0.00084968000000","RCS_SIZE":"LARGE","RA_OF_ASC_NODE":"207.9068","EPOCH":"2022-11-24T22:00:00.999936","DECAY_DATE":null,"GP_ID":"218726378","NORAD_CAT_ID":"53678","OBJECT_NAME":"STARLINK-4418","EPHEMERIS_TYPE":"0","COUNTRY_CODE":"US","MEAN_MOTION_DDOT":"0.0000000000000","REF_FRAME":"TEME","ECCENTRICITY":"0.00019250","MEAN_MOTION_DOT":"-0.00010953","CLASSIFICATION_TYPE":"U","REV_AT_EPOCH":"130","SEMIMAJOR_AXIS":"6941.172","PERIOD":"95.920","MEAN_MOTION":"15.01251973","OBJECT_ID":"2022-105AG","LAUNCH_DATE":"2022-08-31","OBJECT_TYPE":"PAYLOAD","FILE":"3669335","SITE":"AFWTR","APOAPSIS":"564.373","INCLINATION":"97.6528","TLE_LINE2":"2 53678  97.6528 207.9068 0001925  97.1283 229.6541 15.01251973  1304","PERIAPSIS":"561.700","ELEMENT_SET_NO":"999","TLE_LINE1":"1 53678U 22105AG  22328.91667824 -.00010953  00000-0 -84968-3 0  9997","TIME_SYSTEM":"UTC","MEAN_ELEMENT_THEORY":"SGP4","ARG_OF_PERICENTER":"97.1283","MEAN_ANOMALY":"229.6541"},{"ELEMENT_SET_NO":"999","TLE_LINE1":"1 53679U 22105AH  22328.91667824 -.00001951  00000-0 -14735-3 0  9991","ARG_OF_PERICENTER":"96.4365","MEAN_ANOMALY":"210.3006","TIME_SYSTEM":"UTC","MEAN_ELEMENT_THEORY":"SGP4","TLE_LINE2":"2 53679  97.6536 207.9055 0002187  96.4365 210.3006 15.01257190  1304","APOAPSIS":"564.539","SITE":"AFWTR","INCLINATION":"97.6536","PERIAPSIS":"561.502","OBJECT_TYPE":"PAYLOAD","MEAN_MOTION":"15.01257190","PERIOD":"95.920","LAUNCH_DATE":"2022-08-31","OBJECT_ID":"2022-105AH","FILE":"3669335","MEAN_MOTION_DOT":"-0.00001951","REV_AT_EPOCH":"130","CLASSIFICATION_TYPE":"U","SEMIMAJOR_AXIS":"6941.156","COUNTRY_CODE":"US","EPHEMERIS_TYPE":"0","OBJECT_NAME":"STARLINK-4632","ECCENTRICITY":"0.00021870","REF_FRAME":"TEME","MEAN_MOTION_DDOT":"0.0000000000000","NORAD_CAT_ID":"53679","GP_ID":"218726554","DECAY_DATE":null,"RA_OF_ASC_NODE":"207.9055","CENTER_NAME":"EARTH","BSTAR":"-0.00014735000000","RCS_SIZE":"LARGE","EPOCH":"2022-11-24T22:00:00.999936"},{"FILE":"3669335","OBJECT_TYPE":"PAYLOAD","LAUNCH_DATE":"2022-08-31","OBJECT_ID":"2022-105AJ","PERIOD":"95.920","MEAN_MOTION":"15.01251756","SEMIMAJOR_AXIS":"6941.172","CLASSIFICATION_TYPE":"U","REV_AT_EPOCH":"130","MEAN_MOTION_DOT":"-0.00012258","MEAN_ANOMALY":"226.9317","ARG_OF_PERICENTER":"119.8580","MEAN_ELEMENT_THEORY":"SGP4","TIME_SYSTEM":"UTC","TLE_LINE1":"1 53680U 22105AJ  22328.91667824 -.00012258  00000-0 -95159-3 0  9994","ELEMENT_SET_NO":"999","PERIAPSIS":"561.239","TLE_LINE2":"2 53680  97.6524 207.9066 0002591 119.8580 226.9317 15.01251756  1303","INCLINATION":"97.6524","APOAPSIS":"564.836","SITE":"AFWTR","GP_ID":"218727069","DECAY_DATE":null,"EPOCH":"2022-11-24T22:00:00.999936","RA_OF_ASC_NODE":"207.9066","BSTAR":"-0.00095159000000","RCS_SIZE":"LARGE","CENTER_NAME":"EARTH","ECCENTRICITY":"0.00025910","REF_FRAME":"TEME","MEAN_MOTION_DDOT":"0.0000000000000","EPHEMERIS_TYPE":"0","COUNTRY_CODE":"US","OBJECT_NAME":"STARLINK-4630","NORAD_CAT_ID":"53680"},{"FILE":"3669335","OBJECT_TYPE":"PAYLOAD","PERIOD":"95.919","MEAN_MOTION":"15.01260369","LAUNCH_DATE":"2022-08-31","OBJECT_ID":"2022-105AK","CLASSIFICATION_TYPE":"U","REV_AT_EPOCH":"130","SEMIMAJOR_AXIS":"6941.146","MEAN_MOTION_DOT":"-0.00001136","ARG_OF_PERICENTER":"101.6892","MEAN_ANOMALY":"223.7266","TIME_SYSTEM":"UTC","MEAN_ELEMENT_THEORY":"SGP4","ELEMENT_SET_NO":"999","TLE_LINE1":"1 53681U 22105AK  22328.91667824 -.00001136  00000-0 -83834-4 0  9996","PERIAPSIS":"561.638","TLE_LINE2":"2 53681  97.6527 207.9070 0001978 101.6892 223.7266 15.01260369  1303","SITE":"AFWTR","APOAPSIS":"564.384","INCLINATION":"97.6527","GP_ID":"218725845","DECAY_DATE":null,"EPOCH":"2022-11-24T22:00:00.999936","RA_OF_ASC_NODE":"207.9070","CENTER_NAME":"EARTH","BSTAR":"-0.00008383400000","RCS_SIZE":"LARGE","ECCENTRICITY":"0.00019780","MEAN_MOTION_DDOT":"0.0000000000000","REF_FRAME":"TEME","EPHEMERIS_TYPE":"0","COUNTRY_CODE":"US","OBJECT_NAME":"STARLINK-4424","NORAD_CAT_ID":"53681"},{"OBJECT_TYPE":"PAYLOAD","LAUNCH_DATE":"2022-08-31","OBJECT_ID":"2022-105AL","PERIOD":"95.920","MEAN_MOTION":"15.01250203","FILE":"3669335","MEAN_MOTION_DOT":"-0.00000243","SEMIMAJOR_AXIS":"6941.177","REV_AT_EPOCH":"130","CLASSIFICATION_TYPE":"U","TLE_LINE1":"1 53682U 22105AL  22328.91667824 -.00000243  00000-0 -14368-4 0  9991","ELEMENT_SET_NO":"999","MEAN_ANOMALY":"236.1678","ARG_OF_PERICENTER":"129.2582","MEAN_ELEMENT_THEORY":"SGP4","TIME_SYSTEM":"UTC","TLE_LINE2":"2 53682  97.6537 207.9065 0002093 129.2582 236.1678 15.01250203  1301","INCLINATION":"97.6537","APOAPSIS":"564.495","SITE":"AFWTR","PERIAPSIS":"561.589","GP_ID":"218726021","DECAY_DATE":null,"RA_OF_ASC_NODE":"207.9065","RCS_SIZE":"LARGE","BSTAR":"-0.00001436800000","CENTER_NAME":"EARTH","EPOCH":"2022-11-24T22:00:00.999936","COUNTRY_CODE":"US","EPHEMERIS_TYPE":"0","OBJECT_NAME":"STARLINK-4438","ECCENTRICITY":"0.00020930","REF_FRAME":"TEME","MEAN_MOTION_DDOT":"0.0000000000000","NORAD_CAT_ID":"53682"}];
